[{"OBJECT_NAME":"OBJECT B","OBJECT_ID":"2024-024B","EPOCH":"2026-03-09T23:03:07.239744","MEAN_MOTION":15.20764865,"ECCENTRICITY":0.00185665,"INCLINATION":97.3159,"RA_OF_ASC_NODE":138.1992,"ARG_OF_PERICENTER":118.5867,"MEAN_ANOMALY":241.724,"EPHEMERIS_TYPE":0,"CLASSIFICATION_TYPE":"U","NORAD_CAT_ID":58918,"ELEMENT_SET_NO":999,"REV_AT_EPOCH":11626,"BSTAR":0.00044590474,"MEAN_MOTION_DOT":9.803e-5,"MEAN_MOTION_DDOT":0},{"OBJECT_NAME":"CZ-6A DEB","OBJECT_ID":"2022-151ADD","EPOCH":"2026-03-09T18:20:47.462208","MEAN_MOTION":15.20298953,"ECCENTRICITY":0.00285544,"INCLINATION":98.6309,"RA_OF_ASC_NODE":152.6578,"ARG_OF_PERICENTER":173.2603,"MEAN_ANOMALY":186.9019,"EPHEMERIS_TYPE":0,"CLASSIFICATION_TYPE":"U","NORAD_CAT_ID":56285,"ELEMENT_SET_NO":999,"REV_AT_EPOCH":17182,"BSTAR":0.0066325049,"MEAN_MOTION_DOT":0.00148374,"MEAN_MOTION_DDOT":0}]
